{"type": "FeatureCollection", "features": [ {"type": "Feature", "properties": {"norad_id": 34464, "name": "COSMOS 2251 DEB", "group": "cosmos-2251-debris", "lat": 60.618760932926996, "lon": 111.66969577314843, "alt_km": 490.33792674165943, "timestamp": "2025-12-11T10:53:16.284310+00:00", "meta": {"OBJECT_NAME": "COSMOS 2251 DEB", "OBJECT_ID": "1993-036TH", "EPOCH": "2025-12-10T09:26:19.995936", "MEAN_MOTION": 15.26503018, "ECCENTRICITY": 0.0016472, "INCLINATION": 73.9894, "RA_OF_ASC_NODE": 83.2569, "ARG_OF_PERICENTER": 260.6825, "MEAN_ANOMALY": 99.2513, "EPHEMERIS_TYPE": 0, "CLASSIFICATION_TYPE": "U", "NORAD_CAT_ID": 34464, "ELEMENT_SET_NO": 999, "REV_AT_EPOCH": 89804, "BSTAR": 0.0042426718, "MEAN_MOTION_DOT": 0.00112879, "MEAN_MOTION_DDOT": 0}, "tle": {"line1": "1 34464U 93036TH  25344.39328699  .00112879  00000+0  42427-2 0  9997", "line2": "2 34464  73.9894  83.2569 0016472 260.6825  99.2513 15.26503018898044"}}, "geometry": {"type": "Point", "coordinates": [111.66969577314843, 60.618760932926996]}}, {"type": "Feature", "properties": {"norad_id": 34468, "name": "COSMOS 2251 DEB", "group": "cosmos-2251-debris", "lat": -59.33465104712482, "lon": 90.69913001865979, "alt_km": 693.9334975486208, "timestamp": "2025-12-11T10:53:16.284321+00:00", "meta": {"OBJECT_NAME": "COSMOS 2251 DEB", "OBJECT_ID": "1993-036TM", "EPOCH": "2025-12-11T02:53:09.097152", "MEAN_MOTION": 14.47617697, "ECCENTRICITY": 0.0076348, "INCLINATION": 74.0129, "RA_OF_ASC_NODE": 120.2381, "ARG_OF_PERICENTER": 265.4957, "MEAN_ANOMALY": 93.7477, "EPHEMERIS_TYPE": 0, "CLASSIFICATION_TYPE": "U", "NORAD_CAT_ID": 34468, "ELEMENT_SET_NO": 999, "REV_AT_EPOCH": 88438, "BSTAR": 0.00055898, "MEAN_MOTION_DOT": 2.107e-05, "MEAN_MOTION_DDOT": 0}, "tle": {"line1": "1 34468U 93036TM  25345.12024418  .00002107  00000+0  55898-3 0  9994", "line2": "2 34468  74.0129 120.2381 0076348 265.4957  93.7477 14.47617697884383"}}, "geometry": {"type": "Point", "coordinates": [90.69913001865979, -59.33465104712482]}}, {"type": "Feature", "properties": {"norad_id": 34472, "name": "COSMOS 2251 DEB", "group": "cosmos-2251-debris", "lat": -37.00306127138975, "lon": 87.84034971875619, "alt_km": 995.5522879996788, "timestamp": "2025-12-11T10:53:16.284331+00:00", "meta": {"OBJECT_NAME": "COSMOS 2251 DEB", "OBJECT_ID": "1993-036TR", "EPOCH": "2025-12-10T17:33:33.413472", "MEAN_MOTION": 13.70324681, "ECCENTRICITY": 0.03280455, "INCLINATION": 74.083, "RA_OF_ASC_NODE": 101.446, "ARG_OF_PERICENTER": 232.9036, "MEAN_ANOMALY": 124.1688, "EPHEMERIS_TYPE": 0, "CLASSIFICATION_TYPE": "U", "NORAD_CAT_ID": 34472, "ELEMENT_SET_NO": 999, "REV_AT_EPOCH": 83699, "BSTAR": 0.0010864797, "MEAN_MOTION_DOT": 1.379e-05, "MEAN_MOTION_DDOT": 0}, "tle": {"line1": "1 34472U 93036TR  25344.73163673  .00001379  00000+0  10865-2 0  9996", "line2": "2 34472  74.0830 101.4460 0328045 232.9036 124.1688 13.70324681836997"}}, "geometry": {"type": "Point", "coordinates": [87.84034971875619, -37.00306127138975]}}, {"type": "Feature", "properties": {"norad_id": 34474, "name": "COSMOS 2251 DEB", "group": "cosmos-2251-debris", "lat": -69.72824337320328, "lon": -82.18392714908174, "alt_km": 948.1405697300179, "timestamp": "2025-12-11T10:53:16.284342+00:00", "meta": {"OBJECT_NAME": "COSMOS 2251 DEB", "OBJECT_ID": "1993-036TT", "EPOCH": "2025-12-10T17:19:44.104800", "MEAN_MOTION": 14.06391002, "ECCENTRICITY": 0.01981743, "INCLINATION": 74.0785, "RA_OF_ASC_NODE": 329.7007, "ARG_OF_PERICENTER": 44.0941, "MEAN_ANOMALY": 137.8516, "EPHEMERIS_TYPE": 0, "CLASSIFICATION_TYPE": "U", "NORAD_CAT_ID": 34474, "ELEMENT_SET_NO": 999, "REV_AT_EPOCH": 85480, "BSTAR": 0.0028327315, "MEAN_MOTION_DOT": 5.568e-05, "MEAN_MOTION_DDOT": 0}, "tle": {"line1": "1 34474U 93036TT  25344.72203825  .00005568  00000+0  28327-2 0  9997", "line2": "2 34474  74.0785 329.7007 0198174  44.0941 137.8516 14.06391002854807"}}, "geometry": {"type": "Point", "coordinates": [-82.18392714908174, -69.72824337320328]}}, {"type": "Feature", "properties": {"norad_id": 34476, "name": "COSMOS 2251 DEB", "group": "cosmos-2251-debris", "lat": 11.94403337092062, "lon": 88.15088379102137, "alt_km": 863.4639643638066, "timestamp": "2025-12-11T10:53:16.284353+00:00", "meta": {"OBJECT_NAME": "COSMOS 2251 DEB", "OBJECT_ID": "1993-036TV", "EPOCH": "2025-12-09T17:08:07.616256", "MEAN_MOTION": 13.81979992, "ECCENTRICITY": 0.0319879, "INCLINATION": 74.0051, "RA_OF_ASC_NODE": 87.6033, "ARG_OF_PERICENTER": 307.827, "MEAN_ANOMALY": 49.429, "EPHEMERIS_TYPE": 0, "CLASSIFICATION_TYPE": "U", "NORAD_CAT_ID": 34476, "ELEMENT_SET_NO": 999, "REV_AT_EPOCH": 83596, "BSTAR": 0.0043301, "MEAN_MOTION_DOT": 6.851e-05, "MEAN_MOTION_DDOT": 0}, "tle": {"line1": "1 34476U 93036TV  25343.71397704  .00006851  00000+0  43301-2 0  9992", "line2": "2 34476  74.0051  87.6033 0319879 307.8270  49.4290 13.81979992835961"}}, "geometry": {"type": "Point", "coordinates": [88.15088379102137, 11.94403337092062]}}, {"type": "Feature", "properties": {"norad_id": 34477, "name": "COSMOS 2251 DEB", "group": "cosmos-2251-debris", "lat": -72.29819703909709, "lon": 7.763097085257365, "alt_km": 658.557519465975, "timestamp": "2025-12-11T10:53:16.284363+00:00", "meta": {"OBJECT_NAME": "COSMOS 2251 DEB", "OBJECT_ID": "1993-036TW", "EPOCH": "2025-12-11T01:40:09.774048", "MEAN_MOTION": 14.5684335, "ECCENTRICITY": 0.0076909, "INCLINATION": 73.9789, "RA_OF_ASC_NODE": 72.6838, "ARG_OF_PERICENTER": 260.1515, "MEAN_ANOMALY": 163.5362, "EPHEMERIS_TYPE": 0, "CLASSIFICATION_TYPE": "U", "NORAD_CAT_ID": 34477, "ELEMENT_SET_NO": 999, "REV_AT_EPOCH": 88601, "BSTAR": 0.0013088, "MEAN_MOTION_DOT": 6.079e-05, "MEAN_MOTION_DDOT": 0}, "tle": {"line1": "1 34477U 93036TW  25345.06955757  .00006079  00000+0  13088-2 0  9992", "line2": "2 34477  73.9789  72.6838 0076909 260.1515 163.5362 14.56843350886013"}}, "geometry": {"type": "Point", "coordinates": [7.763097085257365, -72.29819703909709]}}, {"type": "Feature", "properties": {"norad_id": 34478, "name": "COSMOS 2251 DEB", "group": "cosmos-2251-debris", "lat": -71.51012296833264, "lon": -49.32011468840575, "alt_km": 533.6411077705052, "timestamp": "2025-12-11T10:53:16.284374+00:00", "meta": {"OBJECT_NAME": "COSMOS 2251 DEB", "OBJECT_ID": "1993-036TX", "EPOCH": "2025-12-11T03:35:25.077984", "MEAN_MOTION": 15.07789123, "ECCENTRICITY": 0.0035133, "INCLINATION": 74.04, "RA_OF_ASC_NODE": 10.1561, "ARG_OF_PERICENTER": 231.5955, "MEAN_ANOMALY": 197.7773, "EPHEMERIS_TYPE": 0, "CLASSIFICATION_TYPE": "U", "NORAD_CAT_ID": 34478, "ELEMENT_SET_NO": 999, "REV_AT_EPOCH": 88949, "BSTAR": 0.0041257, "MEAN_MOTION_DOT": 0.00064556, "MEAN_MOTION_DDOT": 0}, "tle": {"line1": "1 34478U 93036TX  25345.14959581  .00064556  00000+0  41257-2 0  9994", "line2": "2 34478  74.0400  10.1561 0035133 231.5955 197.7773 15.07789123889494"}}, "geometry": {"type": "Point", "coordinates": [-49.32011468840575, -71.51012296833264]}}, {"type": "Feature", "properties": {"norad_id": 34481, "name": "COSMOS 2251 DEB", "group": "cosmos-2251-debris", "lat": -40.887033659053536, "lon": -109.78290584052579, "alt_km": 739.1765232262524, "timestamp": "2025-12-11T10:53:16.284384+00:00", "meta": {"OBJECT_NAME": "COSMOS 2251 DEB", "OBJECT_ID": "1993-036UA", "EPOCH": "2025-12-11T00:05:17.499264", "MEAN_MOTION": 14.32540163, "ECCENTRICITY": 0.0070766, "INCLINATION": 73.9803, "RA_OF_ASC_NODE": 56.6372, "ARG_OF_PERICENTER": 231.2937, "MEAN_ANOMALY": 191.9293, "EPHEMERIS_TYPE": 0, "CLASSIFICATION_TYPE": "U", "NORAD_CAT_ID": 34481, "ELEMENT_SET_NO": 999, "REV_AT_EPOCH": 87424, "BSTAR": 0.0010686, "MEAN_MOTION_DOT": 2.954e-05, "MEAN_MOTION_DDOT": 0}, "tle": {"line1": "1 34481U 93036UA  25345.00367476  .00002954  00000+0  10686-2 0  9995", "line2": "2 34481  73.9803  56.6372 0070766 231.2937 191.9293 14.32540163874242"}}, "geometry": {"type": "Point", "coordinates": [-109.78290584052579, -40.887033659053536]}}, {"type": "Feature", "properties": {"norad_id": 34482, "name": "COSMOS 2251 DEB", "group": "cosmos-2251-debris", "lat": -41.517505480283646, "lon": 60.7616970660166, "alt_km": 655.4189524524181, "timestamp": "2025-12-11T10:53:16.284395+00:00", "meta": {"OBJECT_NAME": "COSMOS 2251 DEB", "OBJECT_ID": "1993-036UB", "EPOCH": "2025-12-11T02:23:14.698752", "MEAN_MOTION": 14.69125321, "ECCENTRICITY": 0.0045119, "INCLINATION": 74.0368, "RA_OF_ASC_NODE": 226.7683, "ARG_OF_PERICENTER": 287.0577, "MEAN_ANOMALY": 224.4358, "EPHEMERIS_TYPE": 0, "CLASSIFICATION_TYPE": "U", "NORAD_CAT_ID": 34482, "ELEMENT_SET_NO": 999, "REV_AT_EPOCH": 88163, "BSTAR": 0.0028405, "MEAN_MOTION_DOT": 0.00016972, "MEAN_MOTION_DDOT": 0}, "tle": {"line1": "1 34482U 93036UB  25345.09947568  .00016972  00000+0  28405-2 0  9994", "line2": "2 34482  74.0368 226.7683 0045119 287.0577 224.4358 14.69125321881639"}}, "geometry": {"type": "Point", "coordinates": [60.7616970660166, -41.517505480283646]}}, {"type": "Feature", "properties": {"norad_id": 34544, "name": "COSMOS 2251 DEB", "group": "cosmos-2251-debris", "lat": -69.81016049508061, "lon": 154.4241253847825, "alt_km": 863.5933264585565, "timestamp": "2025-12-11T10:53:16.284405+00:00", "meta": {"OBJECT_NAME": "COSMOS 2251 DEB", "OBJECT_ID": "1993-036UE", "EPOCH": "2025-12-10T23:12:13.179744", "MEAN_MOTION": 13.54661255, "ECCENTRICITY": 0.0384245, "INCLINATION": 73.9145, "RA_OF_ASC_NODE": 206.8996, "ARG_OF_PERICENTER": 235.6686, "MEAN_ANOMALY": 190.1829, "EPHEMERIS_TYPE": 0, "CLASSIFICATION_TYPE": "U", "NORAD_CAT_ID": 34544, "ELEMENT_SET_NO": 999, "REV_AT_EPOCH": 82858, "BSTAR": 0.00034892, "MEAN_MOTION_DOT": 3.59e-06, "MEAN_MOTION_DDOT": 0}, "tle": {"line1": "1 34544U 93036UE  25344.96681921  .00000359  00000+0  34892-3 0  9996", "line2": "2 34544  73.9145 206.8996 0384245 235.6686 190.1829 13.54661255828582"}}, "geometry": {"type": "Point", "coordinates": [154.4241253847825, -69.81016049508061]}}]}